{
    "links": {
        "self": "http://www.neowsapp.com/rest/v1/neo/3789717?api_key=iIulBulltgU6a56xZRHN4H3l9WmuAYTsLGpBGhQ2"
    },
    "id": "3789717",
    "neo_reference_id": "3789717",
    "name": "(2017 WM16)",
    "designation": "2017 WM16",
    "nasa_jpl_url": "http://ssd.jpl.nasa.gov/sbdb.cgi?sstr=3789717",
    "absolute_magnitude_h": 26.8,
    "estimated_diameter": {
        "kilometers": {
            "estimated_diameter_min": 0.0116025908,
            "estimated_diameter_max": 0.0259441818
        },
        "meters": {
            "estimated_diameter_min": 11.6025908209,
            "estimated_diameter_max": 25.9441817907
        },
        "miles": {
            "estimated_diameter_min": 0.0072095135,
            "estimated_diameter_max": 0.0161209622
        },
        "feet": {
            "estimated_diameter_min": 38.066244069,
            "estimated_diameter_max": 85.1187093863
        }
    },
    "is_potentially_hazardous_asteroid": false,
    "close_approach_data": [
        {
            "close_approach_date": "2017-11-19",
            "close_approach_date_full": "2017-Nov-19 01:23",
            "epoch_date_close_approach": 1511054580000,
            "relative_velocity": {
                "kilometers_per_second": "5.9257176121",
                "kilometers_per_hour": "21332.5834034898",
                "miles_per_hour": "13255.2377264628"
            },
            "miss_distance": {
                "astronomical": "0.0407894609",
                "lunar": "15.8671002901",
                "kilometers": "6102016.469088283",
                "miles": "3791617.2142649854"
            },
            "orbiting_body": "Earth"
        }
    ],
    "orbital_data": {
        "orbit_id": "2",
        "orbit_determination_date": "2017-12-03 06:17:06",
        "first_observation_date": "2017-11-25",
        "last_observation_date": "2017-12-01",
        "data_arc_in_days": 6,
        "observations_used": 19,
        "orbit_uncertainty": "8",
        "minimum_orbit_intersection": ".0407689",
        "jupiter_tisserand_invariant": "4.306",
        "epoch_osculation": "2458083.5",
        "eccentricity": ".3511046361726596",
        "semi_major_axis": "1.585360468285538",
        "inclination": "7.850893261591274",
        "ascending_node_longitude": "236.0929835947988",
        "orbital_period": "729.1056502663406",
        "perihelion_distance": "1.028733057865627",
        "perihelion_argument": "183.6285471278606",
        "aphelion_distance": "2.141987878705449",
        "perihelion_time": "2458079.369633373571",
        "mean_anomaly": "2.03939166425506",
        "mean_motion": ".4937556030027923",
        "equinox": "J2000",
        "orbit_class": {
            "orbit_class_type": "AMO",
            "orbit_class_description": "Near-Earth asteroid orbits similar to that of 1221 Amor",
            "orbit_class_range": "1.017 AU < q (perihelion) < 1.3 AU"
        }
    },
    "is_sentry_object": false
}